start=new Date('2023-06-03T00:00:00.000Z').valueOf();
sats=[{"TLE_LINE1":"1 53400U 22097N   23153.84473825  .00000457  00000-0  46789-4 0  9991","ECCENTRICITY":"0.00009920","FILE":"3923570","GP_ID":"233072744","INCLINATION":"53.2168","LAUNCH_DATE":"2022-08-10","EPOCH":"2023-06-02T20:16:25.384800","PERIOD":"95.438","MEAN_MOTION":"15.08836168","EPHEMERIS_TYPE":"0","OBJECT_NAME":"STARLINK-4520","REF_FRAME":"TEME","MEAN_MOTION_DOT":"0.00000457","TIME_SYSTEM":"UTC","PERIAPSIS":"539.071","BSTAR":"0.00004678900000","CLASSIFICATION_TYPE":"U","APOAPSIS":"540.443","TLE_LINE2":"2 53400  53.2168 341.9793 0000992  89.4066 270.7040 15.08836168 45913","ARG_OF_PERICENTER":"89.4066","RCS_SIZE":"LARGE","DECAY_DATE":null,"CENTER_NAME":"EARTH","SEMIMAJOR_AXIS":"6917.892","REV_AT_EPOCH":"4591","NORAD_CAT_ID":"53400","RA_OF_ASC_NODE":"341.9793","COUNTRY_CODE":"US","SITE":"AFETR","OBJECT_ID":"2022-097N","MEAN_ELEMENT_THEORY":"SGP4","MEAN_ANOMALY":"270.7040","MEAN_MOTION_DDOT":"0.0000000000000","OBJECT_TYPE":"PAYLOAD","ELEMENT_SET_NO":"999"},{"CLASSIFICATION_TYPE":"U","BSTAR":"0.00005830900000","PERIAPSIS":"539.020","TIME_SYSTEM":"UTC","OBJECT_NAME":"STARLINK-4525","REF_FRAME":"TEME","MEAN_MOTION_DOT":"0.00000640","EPHEMERIS_TYPE":"0","MEAN_MOTION":"15.08841818","PERIOD":"95.437","EPOCH":"2023-06-02T19:02:13.725024","LAUNCH_DATE":"2022-08-10","INCLINATION":"53.2164","FILE":"3923570","GP_ID":"233072992","ECCENTRICITY":"0.00010400","TLE_LINE1":"1 53401U 22097P   23153.79321441  .00000640  00000-0  58309-4 0  9997","ELEMENT_SET_NO":"999","OBJECT_TYPE":"PAYLOAD","MEAN_MOTION_DDOT":"0.0000000000000","MEAN_ANOMALY":"265.0709","MEAN_ELEMENT_THEORY":"SGP4","OBJECT_ID":"2022-097P","SITE":"AFETR","COUNTRY_CODE":"US","RA_OF_ASC_NODE":"342.2088","NORAD_CAT_ID":"53401","REV_AT_EPOCH":"4590","SEMIMAJOR_AXIS":"6917.875","CENTER_NAME":"EARTH","DECAY_DATE":null,"RCS_SIZE":"LARGE","ARG_OF_PERICENTER":"95.0402","TLE_LINE2":"2 53401  53.2164 342.2088 0001040  95.0402 265.0709 15.08841818 45909","APOAPSIS":"540.459"},{"MEAN_MOTION_DDOT":"0.0000000000000","MEAN_ANOMALY":"272.8471","OBJECT_TYPE":"PAYLOAD","ELEMENT_SET_NO":"999","COUNTRY_CODE":"US","NORAD_CAT_ID":"53402","RA_OF_ASC_NODE":"342.0000","MEAN_ELEMENT_THEORY":"SGP4","SITE":"AFETR","OBJECT_ID":"2022-097Q","RCS_SIZE":"LARGE","REV_AT_EPOCH":"4591","CENTER_NAME":"EARTH","DECAY_DATE":null,"SEMIMAJOR_AXIS":"6917.877","APOAPSIS":"540.455","TLE_LINE2":"2 53402  53.2170 342.0000 0001031  87.2639 272.8471 15.08841028 45910","ARG_OF_PERICENTER":"87.2639","PERIAPSIS":"539.029","CLASSIFICATION_TYPE":"U","BSTAR":"0.00007139400000","MEAN_MOTION":"15.08841028","TIME_SYSTEM":"UTC","EPHEMERIS_TYPE":"0","OBJECT_NAME":"STARLINK-4499","REF_FRAME":"TEME","MEAN_MOTION_DOT":"0.00000849","LAUNCH_DATE":"2022-08-10","INCLINATION":"53.2170","EPOCH":"2023-06-02T20:11:07.204704","PERIOD":"95.437","FILE":"3923570","GP_ID":"233071743","TLE_LINE1":"1 53402U 22097Q   23153.84105561  .00000849  00000-0  71394-4 0  9997","ECCENTRICITY":"0.00010310"},{"OBJECT_TYPE":"PAYLOAD","ELEMENT_SET_NO":"999","MEAN_MOTION_DDOT":"0.0000000000000","MEAN_ANOMALY":"278.7557","MEAN_ELEMENT_THEORY":"SGP4","SITE":"AFETR","OBJECT_ID":"2022-097R","COUNTRY_CODE":"US","NORAD_CAT_ID":"53403","RA_OF_ASC_NODE":"342.3915","REV_AT_EPOCH":"4590","CENTER_NAME":"EARTH","DECAY_DATE":null,"SEMIMAJOR_AXIS":"6917.892","RCS_SIZE":"LARGE","ARG_OF_PERICENTER":"81.3501","APOAPSIS":"540.160","TLE_LINE2":"2 53403  53.2164 342.3915 0000583  81.3501 278.7557 15.08836240 45905","CLASSIFICATION_TYPE":"U","BSTAR":"-0.00002207400000","PERIAPSIS":"539.354","TIME_SYSTEM":"UTC","EPHEMERIS_TYPE":"0","REF_FRAME":"TEME","OBJECT_NAME":"STARLINK-4507","MEAN_MOTION_DOT":"-0.00000639","MEAN_MOTION":"15.08836240","EPOCH":"2023-06-02T19:28:46.372512","PERIOD":"95.438","LAUNCH_DATE":"2022-08-10","INCLINATION":"53.2164","GP_ID":"233071993","FILE":"3923570","TLE_LINE1":"1 53403U 22097R   23153.81164783 -.00000639  00000-0 -22074-4 0  9996","ECCENTRICITY":"0.00005830"},{"MEAN_ELEMENT_THEORY":"SGP4","SITE":"AFETR","OBJECT_ID":"2022-097S","COUNTRY_CODE":"US","NORAD_CAT_ID":"53404","RA_OF_ASC_NODE":"332.3397","OBJECT_TYPE":"PAYLOAD","ELEMENT_SET_NO":"999","MEAN_MOTION_DDOT":"0.0000000000000","MEAN_ANOMALY":"273.8969","ARG_OF_PERICENTER":"86.2158","APOAPSIS":"540.543","TLE_LINE2":"2 53404  53.2157 332.3397 0001180  86.2158 273.8969 15.08846270 46039","REV_AT_EPOCH":"4603","DECAY_DATE":null,"CENTER_NAME":"EARTH","SEMIMAJOR_AXIS":"6917.861","RCS_SIZE":"LARGE","TIME_SYSTEM":"UTC","EPHEMERIS_TYPE":"0","REF_FRAME":"TEME","MEAN_MOTION_DOT":"0.00002645","OBJECT_NAME":"STARLINK-4509","MEAN_MOTION":"15.08846270","CLASSIFICATION_TYPE":"U","BSTAR":"0.00018418000000","PERIAPSIS":"538.910","FILE":"3923570","GP_ID":"233073245","TLE_LINE1":"1 53404U 22097S   23153.76469259  .00002645  00000-0  18418-3 0  9990","ECCENTRICITY":"0.00011800","EPOCH":"2023-06-02T18:21:09.439776","PERIOD":"95.437","LAUNCH_DATE":"2022-08-10","INCLINATION":"53.2157"},{"RCS_SIZE":"LARGE","REV_AT_EPOCH":"4591","SEMIMAJOR_AXIS":"6917.878","DECAY_DATE":null,"CENTER_NAME":"EARTH","TLE_LINE2":"2 53405  53.2175 342.0118 0000970  92.4580 267.6523 15.08840910 45911","APOAPSIS":"540.414","ARG_OF_PERICENTER":"92.4580","MEAN_MOTION_DDOT":"0.0000000000000","MEAN_ANOMALY":"267.6523","ELEMENT_SET_NO":"999","OBJECT_TYPE":"PAYLOAD","COUNTRY_CODE":"US","RA_OF_ASC_NODE":"342.0118","NORAD_CAT_ID":"53405","MEAN_ELEMENT_THEORY":"SGP4","OBJECT_ID":"2022-097T","SITE":"AFETR","LAUNCH_DATE":"2022-08-10","INCLINATION":"53.2175","PERIOD":"95.437","EPOCH":"2023-06-02T20:05:49.287264","GP_ID":"233073493","FILE":"3923570","ECCENTRICITY":"0.00009700","TLE_LINE1":"1 53405U 22097T   23153.83737601  .00000344  00000-0  39698-4 0  9996","PERIAPSIS":"539.072","CLASSIFICATION_TYPE":"U","BSTAR":"0.00003969800000","MEAN_MOTION":"15.08840910","TIME_SYSTEM":"UTC","OBJECT_NAME":"STARLINK-4510","MEAN_MOTION_DOT":"0.00000344","REF_FRAME":"TEME","EPHEMERIS_TYPE":"0"},{"MEAN_MOTION_DDOT":"0.0000000000000","MEAN_ANOMALY":"274.2952","ELEMENT_SET_NO":"999","OBJECT_TYPE":"PAYLOAD","COUNTRY_CODE":"US","RA_OF_ASC_NODE":"332.1258","NORAD_CAT_ID":"53406","MEAN_ELEMENT_THEORY":"SGP4","OBJECT_ID":"2022-097U","SITE":"AFETR","RCS_SIZE":"LARGE","REV_AT_EPOCH":"4604","SEMIMAJOR_AXIS":"6917.894","CENTER_NAME":"EARTH","DECAY_DATE":null,"TLE_LINE2":"2 53406  53.2173 332.1258 0001036  85.8159 274.2952 15.08835619 46042","APOAPSIS":"540.475","ARG_OF_PERICENTER":"85.8159","PERIAPSIS":"539.042","CLASSIFICATION_TYPE":"U","BSTAR":"0.00001232400000","MEAN_MOTION":"15.08835619","TIME_SYSTEM":"UTC","OBJECT_NAME":"STARLINK-4533","REF_FRAME":"TEME","MEAN_MOTION_DOT":"-0.00000092","EPHEMERIS_TYPE":"0","LAUNCH_DATE":"2022-08-10","INCLINATION":"53.2173","PERIOD":"95.438","EPOCH":"2023-06-02T19:30:03.393792","GP_ID":"233072244","FILE":"3923570","ECCENTRICITY":"0.00010360","TLE_LINE1":"1 53406U 22097U   23153.81253928 -.00000092  00000-0  12324-4 0  9998"},{"PERIAPSIS":"539.249","BSTAR":"0.00008920000000","CLASSIFICATION_TYPE":"U","MEAN_MOTION":"15.08822043","REF_FRAME":"TEME","OBJECT_NAME":"STARLINK-4537","MEAN_MOTION_DOT":"0.00001132","EPHEMERIS_TYPE":"0","TIME_SYSTEM":"UTC","INCLINATION":"53.2183","LAUNCH_DATE":"2022-08-10","PERIOD":"95.439","EPOCH":"2023-06-02T18:06:38.223648","ECCENTRICITY":"0.00007970","TLE_LINE1":"1 53407U 22097V   23153.75460907  .00001132  00000-0  89200-4 0  9991","GP_ID":"233072494","FILE":"3923570","MEAN_ANOMALY":"287.0921","MEAN_MOTION_DDOT":"0.0000000000000","ELEMENT_SET_NO":"999","OBJECT_TYPE":"PAYLOAD","RA_OF_ASC_NODE":"322.6226","NORAD_CAT_ID":"53407","COUNTRY_CODE":"US","OBJECT_ID":"2022-097V","SITE":"AFETR","MEAN_ELEMENT_THEORY":"SGP4","RCS_SIZE":"LARGE","SEMIMAJOR_AXIS":"6917.935","CENTER_NAME":"EARTH","DECAY_DATE":null,"REV_AT_EPOCH":"4617","TLE_LINE2":"2 53407  53.2183 322.6226 0000797  73.0158 287.0921 15.08822043 46173","APOAPSIS":"540.352","ARG_OF_PERICENTER":"73.0158"},{"TLE_LINE2":"2 53408  53.2176 332.3744 0001085  97.5358 262.5758 15.08841659 46038","APOAPSIS":"540.491","ARG_OF_PERICENTER":"97.5358","RCS_SIZE":"LARGE","SEMIMAJOR_AXIS":"6917.875","CENTER_NAME":"EARTH","DECAY_DATE":null,"REV_AT_EPOCH":"4603","RA_OF_ASC_NODE":"332.3744","NORAD_CAT_ID":"53408","COUNTRY_CODE":"US","OBJECT_ID":"2022-097W","SITE":"AFETR","MEAN_ELEMENT_THEORY":"SGP4","MEAN_ANOMALY":"262.5758","MEAN_MOTION_DDOT":"0.0000000000000","ELEMENT_SET_NO":"999","OBJECT_TYPE":"PAYLOAD","ECCENTRICITY":"0.00010850","TLE_LINE1":"1 53408U 22097W   23153.75733488  .00000401  00000-0  43269-4 0  9992","GP_ID":"233072745","FILE":"3923570","INCLINATION":"53.2176","LAUNCH_DATE":"2022-08-10","PERIOD":"95.437","EPOCH":"2023-06-02T18:10:33.733632","MEAN_MOTION":"15.08841659","OBJECT_NAME":"STARLINK-4491","REF_FRAME":"TEME","MEAN_MOTION_DOT":"0.00000401","EPHEMERIS_TYPE":"0","TIME_SYSTEM":"UTC","PERIAPSIS":"538.990","BSTAR":"0.00004326900000","CLASSIFICATION_TYPE":"U"},{"MEAN_MOTION":"15.08839240","EPHEMERIS_TYPE":"0","REF_FRAME":"TEME","MEAN_MOTION_DOT":"0.00000040","OBJECT_NAME":"STARLINK-4490","TIME_SYSTEM":"UTC","PERIAPSIS":"539.104","BSTAR":"0.00002061800000","CLASSIFICATION_TYPE":"U","TLE_LINE1":"1 53409U 22097X   23153.75091649  .00000040  00000-0  20618-4 0  9991","ECCENTRICITY":"0.00009310","GP_ID":"233072993","FILE":"3923570","INCLINATION":"53.2166","LAUNCH_DATE":"2022-08-10","EPOCH":"2023-06-02T18:01:19.184736","PERIOD":"95.438","NORAD_CAT_ID":"53409","RA_OF_ASC_NODE":"322.5978","COUNTRY_CODE":"US","SITE":"AFETR","OBJECT_ID":"2022-097X","MEAN_ELEMENT_THEORY":"SGP4","MEAN_ANOMALY":"269.3676","MEAN_MOTION_DDOT":"0.0000000000000","OBJECT_TYPE":"PAYLOAD","ELEMENT_SET_NO":"999","APOAPSIS":"540.392","TLE_LINE2":"2 53409  53.2166 322.5978 0000931  90.7423 269.3676 15.08839240 46177","ARG_OF_PERICENTER":"90.7423","RCS_SIZE":"LARGE","DECAY_DATE":null,"CENTER_NAME":"EARTH","SEMIMAJOR_AXIS":"6917.883","REV_AT_EPOCH":"4617"}];
